NORAD_CAT_ID,OBJECT_NAME,OBJECT_TYPE,EPOCH,MEAN_MOTION,ECCENTRICITY,INCLINATION,RA_OF_ASC_NODE,ARG_OF_PERICENTER,MEAN_ANOMALY,BSTAR,MEAN_MOTION_DOT,MEAN_MOTION_DDOT,TLE_LINE0,TLE_LINE1,TLE_LINE2,SEMIMAJOR_AXIS,PERIOD,APOGEE,PERIGEE,DECAYED
53137.0,STARLINK-4145,PAYLOAD,2022-11-04 03:18:25,15.08868927,0.000215,53.2174,257.8928,39.3855,320.7293,0.00059978,9.278e-05,0.0,0 STARLINK-4145,1 53137U 22083F   22308.13780083  .00009278  00000-0  59978-3 0  9996,2 53137  53.2174 257.8928 0002150  39.3855 320.7293 15.08868927 17430,6917.792,95.436,541.144,538.17,0.0
53137.0,STARLINK-4145,PAYLOAD,2022-11-04 06:29:12,15.08865498,0.0002226,53.2172,257.3002,36.1097,324.0045,0.00061776,9.564e-05,0.0,0 STARLINK-4145,1 53137U 22083F   22308.27028119  .00009564  00000-0  61776-3 0  9993,2 53137  53.2172 257.3002 0002226  36.1097 324.0045 15.08865498 16827,6917.802,95.436,541.207,538.128,0.0
53137.0,STARLINK-4145,PAYLOAD,2022-11-04 20:47:40,15.08853862,0.00022,53.2165,254.6188,47.3314,312.7863,0.00015145,2.124e-05,0.0,0 STARLINK-4145,1 53137U 22083F   22308.86644043  .00002124  00000-0  15145-3 0  9992,2 53137  53.2165 254.6188 0002200  47.3314 312.7863 15.08853862 16916,6917.8380000000025,95.437,541.225,538.181,0.0
53137.0,STARLINK-4145,PAYLOAD,2022-11-05 03:09:12,15.08853873,0.0002389,53.2175,253.4328,34.0207,326.0938,9.3507e-05,1.201e-05,0.0,0 STARLINK-4145,1 53137U 22083F   22309.13139864  .00001201  00000-0  93507-4 0  9997,2 53137  53.2175 253.4328 0002389  34.0207 326.0938 15.08853873 17589,6917.8380000000025,95.437,541.356,538.05,0.0
53137.0,STARLINK-4145,PAYLOAD,2022-11-06 03:00:01,15.08817131,0.0002212,53.2177,248.9732,38.9874,321.1277,-0.00021995,-3.785e-05,0.0,0 STARLINK-4145,1 53137U 22083F   22310.12501915 -.00003785  00000-0 -21995-3 0  9990,2 53137  53.2177 248.9732 0002212  38.9874 321.1277 15.08817131 17733,6917.95,95.439,541.346,538.285,0.0
53137.0,STARLINK-4145,PAYLOAD,2022-11-06 12:32:20,15.08825316,0.0002158,53.2176,247.1881,38.6679,321.4467,0.00023301,3.421e-05,0.0,0 STARLINK-4145,1 53137U 22083F   22310.52246349  .00003421  00000-0  23301-3 0  9999,2 53137  53.2176 247.1881 0002158  38.6679 321.4467 15.08825316 17162,6917.925,95.438,541.283,538.297,0.0
53137.0,STARLINK-4145,PAYLOAD,2022-11-06 18:53:53,15.08834192,0.0002171,53.2174,245.9981,35.1022,325.0113,0.00044642,6.823e-05,0.0,0 STARLINK-4145,1 53137U 22083F   22310.78742436  .00006823  00000-0  44642-3 0  9995,2 53137  53.2174 245.9981 0002171  35.1022 325.0113 15.08834192 17830,6917.898,95.438,541.265,538.261,0.0
53137.0,STARLINK-4145,PAYLOAD,2022-11-07 20:20:03,15.08841613,0.0002196,53.2178,241.2407,35.7132,324.4006,0.00029479,4.407e-05,0.0,0 STARLINK-4145,1 53137U 22083F   22311.84726833  .00004407  00000-0  29479-3 0  9993,2 53137  53.2178 241.2407 0002196  35.7132 324.4006 15.08841613 17369,6917.875,95.437,541.26,538.221,0.0
53137.0,STARLINK-4145,PAYLOAD,2022-11-08 02:41:36,15.08865161,0.0002104,53.2178,240.051,34.8261,325.2869,0.0011599,0.00018233,0.0,0 STARLINK-4145,1 53137U 22083F   22312.11222328  .00018233  00000-0  11599-2 0  9999,2 53137  53.2178 240.0510 0002104  34.8261 325.2869 15.08865161 18038,6917.803000000001,95.436,541.124,538.2130000000002,0.0
53137.0,STARLINK-4145,PAYLOAD,2022-11-08 05:52:22,15.08868125,0.0002078,53.2175,239.4567,35.992,324.1212,0.0011194,0.00017586,0.0,0 STARLINK-4145,1 53137U 22083F   22312.24470077  .00017586  00000-0  11194-2 0  9990,2 53137  53.2175 239.4567 0002078  35.9920 324.1212 15.08868125 17428,6917.794,95.436,541.097,538.222,0.0
53137.0,STARLINK-4145,PAYLOAD,2022-11-08 20:10:49,15.08879,0.0002093,53.2173,236.7816,45.1347,314.9815,0.00058383,9.026e-05,0.0,0 STARLINK-4145,1 53137U 22083F   22312.84084855  .00009026  00000-0  58383-3 0  9993,2 53137  53.2173 236.7816 0002093  45.1347 314.9815 15.08879000 17516,6917.761,95.435,541.0740000000002,538.178,0.0
53137.0,STARLINK-4145,PAYLOAD,2022-11-09 02:32:21,15.08877826,0.0002213,53.2173,235.5912,35.6681,324.4458,0.00058756,9.085e-05,0.0,0 STARLINK-4145,1 53137U 22083F   22313.10580324  .00009085  00000-0  58756-3 0  9994,2 53137  53.2173 235.5912 0002213  35.6681 324.4458 15.08877826 18186,6917.765,95.435,541.161,538.099,0.0
53137.0,STARLINK-4145,PAYLOAD,2022-11-09 12:04:40,15.08856397,0.0002344,53.2175,233.8074,39.3284,320.7878,-0.00011933,-2.188e-05,0.0,0 STARLINK-4145,1 53137U 22083F   22313.50324182 -.00002188  00000-0 -11933-3 0  9991,2 53137  53.2175 233.8074 0002344  39.3284 320.7878 15.08856397 17615,6917.83,95.437,541.317,538.0740000000002,0.0
53137.0,STARLINK-4145,PAYLOAD,2022-11-09 18:26:12,15.08847258,0.0002207,53.2168,232.6172,38.5125,321.6025,-0.00030733,-5.177e-05,0.0,0 STARLINK-4145,1 53137U 22083F   22313.76820154 -.00005177  00000-0 -30733-3 0  9999,2 53137  53.2168 232.6172 0002207  38.5125 321.6025 15.08847258 18280,6917.858,95.437,541.25,538.196,0.0
53137.0,STARLINK-4145,PAYLOAD,2022-11-09 20:01:35,15.08846088,0.0002079,53.217,232.3198,36.7106,323.4028,-0.00035159,-5.881e-05,0.0,0 STARLINK-4145,1 53137U 22083F   22313.83444222 -.00005881  00000-0 -35159-3 0  9994,2 53137  53.2170 232.3198 0002079  36.7106 323.4028 15.08846088 17668,6917.861999999999,95.437,541.165,538.289,0.0
53137.0,STARLINK-4145,PAYLOAD,2022-11-10 00:47:45,15.0883142,0.0002604,53.2174,231.4279,24.5117,335.5999,-0.00047626,-7.859e-05,0.0,0 STARLINK-4145,1 53137U 22083F   22314.03316922 -.00007859  00000-0 -47626-3 0  9991,2 53137  53.2174 231.4279 0002604  24.5117 335.5999 15.08831420 18322,6917.906999999997,95.438,541.573,537.97,0.0
53137.0,STARLINK-4145,PAYLOAD,2022-11-10 02:23:08,15.08831376,0.0001978,53.2174,231.1309,32.8044,327.307,-0.00048716,-8.031e-05,0.0,0 STARLINK-4145,1 53137U 22083F   22314.09940769 -.00008031  00000-0 -48716-3 0  9993,2 53137  53.2174 231.1309 0001978  32.8044 327.3070 15.08831376 17707,6917.906999999997,95.438,541.14,538.403,0.0
53137.0,STARLINK-4145,PAYLOAD,2022-11-11 00:38:33,15.08837842,0.0002263,53.2176,226.9694,35.8708,324.2436,-8.7476e-05,-1.6800000000000002e-05,0.0,0 STARLINK-4145,1 53137U 22083F   22315.02677522 -.00001680  00000-0 -87476-4 0  9991,2 53137  53.2176 226.9694 0002263  35.8708 324.2436 15.08837842 18477,6917.887,95.438,541.318,538.186,0.0
53137.0,STARLINK-4145,PAYLOAD,2022-11-11 02:13:56,15.08837611,0.0002272,53.2175,226.6722,36.3417,323.7729,-7.8077e-05,-1.531e-05,0.0,0 STARLINK-4145,1 53137U 22083F   22315.09301581 -.00001531  00000-0 -78077-4 0  9999,2 53137  53.2175 226.6722 0002272  36.3417 323.7729 15.08837611 17852,6917.888000000001,95.438,541.3240000000002,538.181,0.0
53137.0,STARLINK-4145,PAYLOAD,2022-11-11 18:07:49,15.08825395,0.0002262,53.2176,223.6977,37.1509,322.9639,0.00010582,1.396e-05,0.0,0 STARLINK-4145,1 53137U 22083F   22315.75542837  .00001396  00000-0  10582-3 0  9996,2 53137  53.2176 223.6977 0002262  37.1509 322.9639 15.08825395 18580,6917.925,95.438,541.355,538.225,0.0
53137.0,STARLINK-4145,PAYLOAD,2022-11-11 21:18:34,15.08838184,0.0002497,53.2177,223.1029,41.9335,318.1848,1.2337e-07,-2.86e-06,0.0,0 STARLINK-4145,1 53137U 22083F   22315.88790298 -.00000286  00000-0  12337-6 0  9997,2 53137  53.2177 223.1029 0002497  41.9335 318.1848 15.08838184 17975,6917.886,95.438,541.4780000000002,538.024,0.0
53137.0,STARLINK-4145,PAYLOAD,2022-11-12 02:04:44,15.0884144,0.0002302,53.2174,222.211,37.4319,322.6833,0.00053327,8.209e-05,0.0,0 STARLINK-4145,1 53137U 22083F   22316.08662699  .00008209  00000-0  53327-3 0  9996,2 53137  53.2174 222.2110 0002302  37.4319 322.6833 15.08841440 18637,6917.876,95.437,541.3330000000002,538.148,0.0
53137.0,STARLINK-4145,PAYLOAD,2022-11-12 05:15:30,15.08849691,0.0002307,53.2172,221.6163,37.8786,322.2368,0.00081446,0.00012701,0.0,0 STARLINK-4145,1 53137U 22083F   22316.21910621  .00012701  00000-0  81446-3 0  9997,2 53137  53.2172 221.6163 0002307  37.8786 322.2368 15.08849691 18021,6917.851,95.437,541.312,538.12,0.0
53137.0,STARLINK-4145,PAYLOAD,2022-11-12 17:58:35,15.0886523,0.0002318,53.2173,219.2371,40.2976,319.8188,0.0009152,0.00014318,0.0,0 STARLINK-4145,1 53137U 22083F   22316.74901955  .00014318  00000-0  91520-3 0  9995,2 53137  53.2173 219.2371 0002318  40.2976 319.8188 15.08865230 18734,6917.803000000001,95.436,541.2719999999998,538.065,0.0
53137.0,STARLINK-4145,PAYLOAD,2022-11-12 21:09:21,15.08863877,0.0002316,53.2172,218.6424,39.5405,320.5756,0.00063494,9.838e-05,0.0,0 STARLINK-4145,1 53137U 22083F   22316.88149808  .00009838  00000-0  63494-3 0  9991,2 53137  53.2172 218.6424 0002316  39.5405 320.5756 15.08863877 18129,6917.807,95.436,541.275,538.07,0.0
53137.0,STARLINK-4145,PAYLOAD,2022-11-13 01:55:30,15.08859133,0.0002329,53.2171,217.7508,37.2536,322.8617,0.00045128,6.905e-05,0.0,0 STARLINK-4145,1 53137U 22083F   22317.08021695  .00006905  00000-0  45128-3 0  9993,2 53137  53.2171 217.7508 0002329  37.2536 322.8617 15.08859133 18788,6917.821999999999,95.436,541.298,538.076,0.0
53137.0,STARLINK-4145,PAYLOAD,2022-11-13 05:06:17,15.08851594,0.0002357,53.217,217.1561,38.983,321.1332,0.00014529,2.025e-05,0.0,0 STARLINK-4145,1 53137U 22083F   22317.21269756  .00002025  00000-0  14529-3 0  9990,2 53137  53.2170 217.1561 0002357  38.9830 321.1332 15.08851594 18808,6917.845,95.437,541.34,538.0790000000002,0.0
53137.0,STARLINK-4145,PAYLOAD,2022-11-14 03:21:41,15.08836538,0.000227,53.217,212.993,37.0472,323.0677,-4.789e-05,-1.05e-05,0.0,0 STARLINK-4145,1 53137U 22083F   22318.14006477 -.00001050  00000-0 -47890-4 0  9999,2 53137  53.2170 212.9930 0002270  37.0472 323.0677 15.08836538 18946,6917.891,95.438,541.326,538.186,0.0
53137.0,STARLINK-4145,PAYLOAD,2022-11-14 09:43:14,15.08835159,0.0002243,53.2171,211.8041,38.3254,321.7897,0.00017147,2.441e-05,0.0,0 STARLINK-4145,1 53137U 22083F   22318.40502630  .00002441  00000-0  17147-3 0  9994,2 53137  53.2171 211.8041 0002243  38.3254 321.7897 15.08835159 18352,6917.895,95.438,541.312,538.2090000000002,0.0
